start=new Date('2021-11-13T00:00:00.000Z').valueOf();
sats=[{"SITE":"AFETR","PERIOD":"95.592","GP_ID":"189647325","LAUNCH_DATE":"2021-05-09","BSTAR":"-0.00000456900000","OBJECT_NAME":"STARLINK-2497","ECCENTRICITY":"0.00012060","EPOCH":"2021-11-12T18:30:47.514528","EPHEMERIS_TYPE":"0","PERIAPSIS":"546.391","MEAN_MOTION_DDOT":"0.0000000000000","RCS_SIZE":"LARGE","INCLINATION":"53.0553","SEMIMAJOR_AXIS":"6925.361","ELEMENT_SET_NO":"999","OBJECT_TYPE":"PAYLOAD","TLE_LINE1":"1 48455U 21040AD  21316.77138327 -.00000349  00000-0 -45690-5 0  9991","OBJECT_ID":"2021-040AD","ARG_OF_PERICENTER":"75.3645","FILE":"3213639","MEAN_ANOMALY":"284.7478","NORAD_CAT_ID":"48455","CLASSIFICATION_TYPE":"U","DECAY_DATE":null,"TLE_LINE2":"2 48455  53.0553  65.1620 0001206  75.3645 284.7478 15.06395990 28791","MEAN_MOTION":"15.06395990","CENTER_NAME":"EARTH","TIME_SYSTEM":"UTC","REV_AT_EPOCH":"2879","COUNTRY_CODE":"US","MEAN_MOTION_DOT":"-0.00000349","MEAN_ELEMENT_THEORY":"SGP4","REF_FRAME":"TEME","RA_OF_ASC_NODE":"65.1620","APOAPSIS":"548.061"},{"TLE_LINE2":"2 48456  53.0557  65.1826 0001309  90.4332 269.6807 15.06396111 28793","MEAN_MOTION":"15.06396111","CENTER_NAME":"EARTH","TIME_SYSTEM":"UTC","REV_AT_EPOCH":"2879","COUNTRY_CODE":"US","MEAN_MOTION_DOT":"-0.00000580","MEAN_ELEMENT_THEORY":"SGP4","REF_FRAME":"TEME","RA_OF_ASC_NODE":"65.1826","APOAPSIS":"548.132","TLE_LINE1":"1 48456U 21040AE  21316.76770001 -.00000580  00000-0 -20042-4 0  9992","ARG_OF_PERICENTER":"90.4332","OBJECT_ID":"2021-040AE","FILE":"3213639","MEAN_ANOMALY":"269.6807","NORAD_CAT_ID":"48456","CLASSIFICATION_TYPE":"U","DECAY_DATE":null,"ECCENTRICITY":"0.00013090","EPOCH":"2021-11-12T18:25:29.280864","EPHEMERIS_TYPE":"0","PERIAPSIS":"546.319","MEAN_MOTION_DDOT":"0.0000000000000","RCS_SIZE":"LARGE","SEMIMAJOR_AXIS":"6925.360","INCLINATION":"53.0557","ELEMENT_SET_NO":"999","OBJECT_TYPE":"PAYLOAD","SITE":"AFETR","GP_ID":"189645208","LAUNCH_DATE":"2021-05-09","PERIOD":"95.592","BSTAR":"-0.00002004200000","OBJECT_NAME":"STARLINK-2508"},{"DECAY_DATE":null,"CLASSIFICATION_TYPE":"U","ARG_OF_PERICENTER":"100.4380","OBJECT_ID":"2021-040AG","TLE_LINE1":"1 48458U 21040AG  21316.63914068 -.00000030  00000-0  16892-4 0  9990","MEAN_ANOMALY":"259.6759","NORAD_CAT_ID":"48458","FILE":"3213639","MEAN_ELEMENT_THEORY":"SGP4","APOAPSIS":"548.119","RA_OF_ASC_NODE":"70.7498","REF_FRAME":"TEME","TIME_SYSTEM":"UTC","CENTER_NAME":"EARTH","MEAN_MOTION":"15.06407028","TLE_LINE2":"2 48458  53.0559  70.7498 0001338 100.4380 259.6759 15.06407028 29427","MEAN_MOTION_DOT":"-0.00000030","COUNTRY_CODE":"US","REV_AT_EPOCH":"2942","OBJECT_NAME":"STARLINK-2698","GP_ID":"189645957","LAUNCH_DATE":"2021-05-09","PERIOD":"95.592","SITE":"AFETR","BSTAR":"0.00001689200000","SEMIMAJOR_AXIS":"6925.327","INCLINATION":"53.0559","ELEMENT_SET_NO":"999","OBJECT_TYPE":"PAYLOAD","EPHEMERIS_TYPE":"0","EPOCH":"2021-11-12T15:20:21.754752","ECCENTRICITY":"0.00013380","RCS_SIZE":"LARGE","MEAN_MOTION_DDOT":"0.0000000000000","PERIAPSIS":"546.265"},{"TIME_SYSTEM":"UTC","TLE_LINE2":"2 48459  53.0566  70.0123 0001311  81.0502 279.0635 15.06393616 29342","MEAN_MOTION":"15.06393616","CENTER_NAME":"EARTH","COUNTRY_CODE":"US","MEAN_MOTION_DOT":"-0.00001785","REV_AT_EPOCH":"2934","MEAN_ELEMENT_THEORY":"SGP4","APOAPSIS":"548.141","RA_OF_ASC_NODE":"70.0123","REF_FRAME":"TEME","TLE_LINE1":"1 48459U 21040AH  21316.80500262 -.00001785  00000-0 -10100-3 0  9991","ARG_OF_PERICENTER":"81.0502","OBJECT_ID":"2021-040AH","MEAN_ANOMALY":"279.0635","NORAD_CAT_ID":"48459","FILE":"3213608","DECAY_DATE":null,"CLASSIFICATION_TYPE":"U","EPOCH":"2021-11-12T19:19:12.226368","EPHEMERIS_TYPE":"0","ECCENTRICITY":"0.00013110","MEAN_MOTION_DDOT":"0.0000000000000","RCS_SIZE":"LARGE","PERIAPSIS":"546.325","SEMIMAJOR_AXIS":"6925.368","INCLINATION":"53.0566","ELEMENT_SET_NO":"999","OBJECT_TYPE":"PAYLOAD","GP_ID":"189623219","LAUNCH_DATE":"2021-05-09","PERIOD":"95.593","SITE":"AFETR","BSTAR":"-0.00010100000000","OBJECT_NAME":"STARLINK-2579"},{"MEAN_MOTION_DDOT":"0.0000000000000","RCS_SIZE":"LARGE","PERIAPSIS":"546.388","EPOCH":"2021-11-12T18:59:19.143456","EPHEMERIS_TYPE":"0","ECCENTRICITY":"0.00012360","OBJECT_TYPE":"PAYLOAD","ELEMENT_SET_NO":"999","INCLINATION":"53.0563","SEMIMAJOR_AXIS":"6925.379","BSTAR":"-0.00010015000000","GP_ID":"189646942","PERIOD":"95.593","LAUNCH_DATE":"2021-05-09","SITE":"AFETR","OBJECT_NAME":"STARLINK-2582","COUNTRY_CODE":"US","MEAN_MOTION_DOT":"-0.00001772","REV_AT_EPOCH":"2924","TIME_SYSTEM":"UTC","MEAN_MOTION":"15.06390219","TLE_LINE2":"2 48460  53.0563  70.0723 0001236  85.6025 274.5105 15.06390219 29240","CENTER_NAME":"EARTH","APOAPSIS":"548.100","RA_OF_ASC_NODE":"70.0723","REF_FRAME":"TEME","MEAN_ELEMENT_THEORY":"SGP4","MEAN_ANOMALY":"274.5105","NORAD_CAT_ID":"48460","FILE":"3213639","TLE_LINE1":"1 48460U 21040AJ  21316.79119379 -.00001772  00000-0 -10015-3 0  9997","OBJECT_ID":"2021-040AJ","ARG_OF_PERICENTER":"85.6025","DECAY_DATE":null,"CLASSIFICATION_TYPE":"U"},{"BSTAR":"0.00005722700000","PERIOD":"95.592","GP_ID":"189645709","LAUNCH_DATE":"2021-05-09","SITE":"AFETR","OBJECT_NAME":"STARLINK-2693","MEAN_MOTION_DDOT":"0.0000000000000","RCS_SIZE":"LARGE","PERIAPSIS":"546.265","EPOCH":"2021-11-12T16:09:28.590912","EPHEMERIS_TYPE":"0","ECCENTRICITY":"0.00013500","ELEMENT_SET_NO":"999","OBJECT_TYPE":"PAYLOAD","INCLINATION":"53.0559","SEMIMAJOR_AXIS":"6925.335","MEAN_ANOMALY":"265.0210","NORAD_CAT_ID":"48461","FILE":"3213639","TLE_LINE1":"1 48461U 21040AK  21316.67324758  .00000571  00000-0  57227-4 0  9995","OBJECT_ID":"2021-040AK","ARG_OF_PERICENTER":"95.0933","DECAY_DATE":null,"CLASSIFICATION_TYPE":"U","COUNTRY_CODE":"US","MEAN_MOTION_DOT":"0.00000571","REV_AT_EPOCH":"2872","TIME_SYSTEM":"UTC","MEAN_MOTION":"15.06404475","TLE_LINE2":"2 48461  53.0559  70.5973 0001350  95.0933 265.0210 15.06404475 28722","CENTER_NAME":"EARTH","APOAPSIS":"548.135","RA_OF_ASC_NODE":"70.5973","REF_FRAME":"TEME","MEAN_ELEMENT_THEORY":"SGP4"},{"TLE_LINE1":"1 48462U 21040AL  21316.62946451  .00001254  00000-0  10306-3 0  9996","OBJECT_ID":"2021-040AL","ARG_OF_PERICENTER":"69.9420","NORAD_CAT_ID":"48462","MEAN_ANOMALY":"290.1726","FILE":"3213639","DECAY_DATE":null,"CLASSIFICATION_TYPE":"U","TIME_SYSTEM":"UTC","TLE_LINE2":"2 48462  53.0527  75.8070 0001464  69.9420 290.1726 15.06405837 28646","MEAN_MOTION":"15.06405837","CENTER_NAME":"EARTH","COUNTRY_CODE":"US","MEAN_MOTION_DOT":"0.00001254","REV_AT_EPOCH":"2864","MEAN_ELEMENT_THEORY":"SGP4","APOAPSIS":"548.210","REF_FRAME":"TEME","RA_OF_ASC_NODE":"75.8070","LAUNCH_DATE":"2021-05-09","GP_ID":"189646458","PERIOD":"95.592","SITE":"AFETR","BSTAR":"0.00010306000000","OBJECT_NAME":"STARLINK-2683","EPOCH":"2021-11-12T15:06:25.733664","EPHEMERIS_TYPE":"0","ECCENTRICITY":"0.00014640","MEAN_MOTION_DDOT":"0.0000000000000","RCS_SIZE":"LARGE","PERIAPSIS":"546.182","SEMIMAJOR_AXIS":"6925.331","INCLINATION":"53.0527","OBJECT_TYPE":"PAYLOAD","ELEMENT_SET_NO":"999"},{"TIME_SYSTEM":"UTC","MEAN_MOTION":"15.06404479","TLE_LINE2":"2 48463  53.0569  75.0599 0001313  79.4656 280.6481 15.06404479 28677","CENTER_NAME":"EARTH","COUNTRY_CODE":"US","MEAN_MOTION_DOT":"-0.00001916","REV_AT_EPOCH":"2867","MEAN_ELEMENT_THEORY":"SGP4","APOAPSIS":"548.109","RA_OF_ASC_NODE":"75.0599","REF_FRAME":"TEME","TLE_LINE1":"1 48463U 21040AM  21316.79532335 -.00001916  00000-0 -10973-3 0  9994","ARG_OF_PERICENTER":"79.4656","OBJECT_ID":"2021-040AM","MEAN_ANOMALY":"280.6481","NORAD_CAT_ID":"48463","FILE":"3213639","DECAY_DATE":null,"CLASSIFICATION_TYPE":"U","EPOCH":"2021-11-12T19:05:15.937440","EPHEMERIS_TYPE":"0","ECCENTRICITY":"0.00013130","MEAN_MOTION_DDOT":"0.0000000000000","RCS_SIZE":"LARGE","PERIAPSIS":"546.291","SEMIMAJOR_AXIS":"6925.335","INCLINATION":"53.0569","OBJECT_TYPE":"PAYLOAD","ELEMENT_SET_NO":"999","GP_ID":"189646697","PERIOD":"95.592","LAUNCH_DATE":"2021-05-09","SITE":"AFETR","BSTAR":"-0.00010973000000","OBJECT_NAME":"STARLINK-2689"},{"BSTAR":"-0.00000306610000","SITE":"AFETR","GP_ID":"189647326","LAUNCH_DATE":"2021-05-09","PERIOD":"95.593","OBJECT_NAME":"STARLINK-2686","PERIAPSIS":"546.205","RCS_SIZE":"LARGE","MEAN_MOTION_DDOT":"0.0000000000000","ECCENTRICITY":"0.00014910","EPHEMERIS_TYPE":"0","EPOCH":"2021-11-12T20:10:18.923520","OBJECT_TYPE":"PAYLOAD","ELEMENT_SET_NO":"999","SEMIMAJOR_AXIS":"6925.372","INCLINATION":"53.0568","FILE":"3213639","NORAD_CAT_ID":"48464","MEAN_ANOMALY":"282.0720","ARG_OF_PERICENTER":"78.0436","OBJECT_ID":"2021-040AN","TLE_LINE1":"1 48464U 21040AN  21316.84049680 -.00000327  00000-0 -30661-5 0  9990","CLASSIFICATION_TYPE":"U","DECAY_DATE":null,"REV_AT_EPOCH":"2867","MEAN_MOTION_DOT":"-0.00000327","COUNTRY_CODE":"US","CENTER_NAME":"EARTH","TLE_LINE2":"2 48464  53.0568  74.8561 0001491  78.0436 282.0720 15.06392245 28670","MEAN_MOTION":"15.06392245","TIME_SYSTEM":"UTC","REF_FRAME":"TEME","RA_OF_ASC_NODE":"74.8561","APOAPSIS":"548.270","MEAN_ELEMENT_THEORY":"SGP4"},{"BSTAR":"0.00001134000000","SITE":"AFETR","PERIOD":"95.592","GP_ID":"189645209","LAUNCH_DATE":"2021-05-09","OBJECT_NAME":"STARLINK-2681","PERIAPSIS":"546.387","RCS_SIZE":"LARGE","MEAN_MOTION_DDOT":"0.0000000000000","ECCENTRICITY":"0.00011970","EPHEMERIS_TYPE":"0","EPOCH":"2021-11-12T20:26:13.843104","ELEMENT_SET_NO":"999","OBJECT_TYPE":"PAYLOAD","SEMIMAJOR_AXIS":"6925.351","INCLINATION":"53.0575","FILE":"3213639","NORAD_CAT_ID":"48465","MEAN_ANOMALY":"286.7094","OBJECT_ID":"2021-040AP","ARG_OF_PERICENTER":"73.4026","TLE_LINE1":"1 48465U 21040AP  21316.85154911 -.00000112  00000-0  11340-4 0  9999","CLASSIFICATION_TYPE":"U","DECAY_DATE":null,"REV_AT_EPOCH":"2868","MEAN_MOTION_DOT":"-0.00000112","COUNTRY_CODE":"US","CENTER_NAME":"EARTH","MEAN_MOTION":"15.06399183","TLE_LINE2":"2 48465  53.0575  74.7952 0001197  73.4026 286.7094 15.06399183 28683","TIME_SYSTEM":"UTC","RA_OF_ASC_NODE":"74.7952","REF_FRAME":"TEME","APOAPSIS":"548.045","MEAN_ELEMENT_THEORY":"SGP4"}];
